{
    "links": {
        "self": "http://www.neowsapp.com/rest/v1/neo/3943323?api_key=iIulBulltgU6a56xZRHN4H3l9WmuAYTsLGpBGhQ2"
    },
    "id": "3943323",
    "neo_reference_id": "3943323",
    "name": "(2019 YX)",
    "designation": "2019 YX",
    "nasa_jpl_url": "http://ssd.jpl.nasa.gov/sbdb.cgi?sstr=3943323",
    "absolute_magnitude_h": 25.1,
    "estimated_diameter": {
        "kilometers": {
            "estimated_diameter_min": 0.0253837029,
            "estimated_diameter_max": 0.0567596853
        },
        "meters": {
            "estimated_diameter_min": 25.3837029364,
            "estimated_diameter_max": 56.7596852866
        },
        "miles": {
            "estimated_diameter_min": 0.0157726969,
            "estimated_diameter_max": 0.0352688224
        },
        "feet": {
            "estimated_diameter_min": 83.279867942,
            "estimated_diameter_max": 186.2194458756
        }
    },
    "is_potentially_hazardous_asteroid": false,
    "close_approach_data": [
        {
            "close_approach_date": "2019-12-29",
            "close_approach_date_full": "2019-Dec-29 22:48",
            "epoch_date_close_approach": 1577659680000,
            "relative_velocity": {
                "kilometers_per_second": "5.8604879361",
                "kilometers_per_hour": "21097.7565698202",
                "miles_per_hour": "13109.3254641752"
            },
            "miss_distance": {
                "astronomical": "0.0472364691",
                "lunar": "18.3749864799",
                "kilometers": "7066475.163680817",
                "miles": "4390904.0577845946"
            },
            "orbiting_body": "Earth"
        }
    ],
    "orbital_data": {
        "orbit_id": "4",
        "orbit_determination_date": "2020-01-03 05:36:03",
        "first_observation_date": "2019-12-19",
        "last_observation_date": "2020-01-03",
        "data_arc_in_days": 15,
        "observations_used": 19,
        "orbit_uncertainty": "8",
        "minimum_orbit_intersection": ".0427935",
        "jupiter_tisserand_invariant": "3.936",
        "epoch_osculation": "2458838.5",
        "eccentricity": ".437474889544039",
        "semi_major_axis": "1.806314504611119",
        "inclination": "5.308624110122825",
        "ascending_node_longitude": "78.50927009539994",
        "orbital_period": "886.7240359778522",
        "perihelion_distance": "1.016097266224574",
        "perihelion_argument": "23.145521675888",
        "aphelion_distance": "2.596531742997664",
        "perihelion_time": "2458851.626294875739",
        "mean_anomaly": "354.6708716990456",
        "mean_motion": ".4059887692149937",
        "equinox": "J2000",
        "orbit_class": {
            "orbit_class_type": "APO",
            "orbit_class_description": "Near-Earth asteroid orbits which cross the Earth’s orbit similar to that of 1862 Apollo",
            "orbit_class_range": "a (semi-major axis) > 1.0 AU; q (perihelion) < 1.017 AU"
        }
    },
    "is_sentry_object": false
}